MEAN_MOTION;ECCENTRICITY;INCLINATION;RA_OF_ASC_NODE;ARG_OF_PERICENTER;MEAN_ANOMALY;BSTAR;MEAN_MOTION_DOT;MEAN_MOTION_DDOT;TYPE
14.54770228;0.0002818;47.005;324.6763;294.6905;65.3685;3.2679E-5;-2.4E-7;0;Orbcomm
14.54721379;0.0002786;47.0049;320.1602;293.3001;66.7589;3.3196E-5;-2.2E-7;0;Orbcomm
14.54721869;0.0002774;47.0046;315.3219;298.4208;61.6397;3.5192E-5;-1.4E-7;0;Orbcomm
14.54721867;0.0002763;47.0047;314.9991;297.7436;62.3168;3.5002E-5;-1.4E-7;0;Orbcomm
14.54722071;0.0002742;47.0046;311.7733;300.2346;59.8266;3.5153E-5;-1.4E-7;0;Orbcomm
14.54722149;0.0002729;47.0045;310.8055;300.908;59.1535;3.5867E-5;-1.1E-7;0;Orbcomm
14.54722209;0.000272;47.0045;309.8378;301.708;58.3539;3.6265E-5;-9.0E-8;0;Orbcomm
14.54722366;0.0002705;47.0044;307.2571;303.6544;56.4082;3.6009E-5;-1.0E-7;0;Orbcomm
14.54722464;0.0002689;47.0044;306.6118;304.0356;56.0272;3.8702E-5;2.0E-8;0;Orbcomm
14.54722745;0.0002661;47.0043;302.7408;306.9498;53.1142;3.9302E-5;4.0E-8;0;Orbcomm
14.54722797;0.0002646;47.0043;301.773;307.5837;52.4807;3.7963E-5;-2.0E-8;0;Orbcomm
14.5472308;0.0002623;47.0041;296.9342;311.5929;48.4731;3.6083E-5;-1.0E-7;0;Orbcomm
14.54723399;0.0002577;47.004;292.418;314.9537;45.1138;3.569E-5;-1.1E-7;0;Orbcomm
14.54723681;0.0002529;47.0038;287.9017;318.3067;41.7624;3.3885E-5;-1.9E-7;0;Orbcomm
14.54724043;0.0002443;47.0037;282.7402;321.3334;38.7375;3.4714E-5;-1.6E-7;0;Orbcomm
14.54724073;0.000244;47.0037;282.4176;321.6072;38.4638;3.5199E-5;-1.4E-7;0;Orbcomm
14.54724445;0.0002377;47.0035;277.5786;325.1902;34.8826;3.7517E-5;-4.0E-8;0;Orbcomm
14.54724474;0.0002375;47.0035;277.2561;325.5048;34.5682;3.7932E-5;-2.0E-8;0;Orbcomm
14.5472518;0.0002255;47.0034;267.2555;333.2913;26.7855;4.0138E-5;8.0E-8;0;Orbcomm
14.54725329;0.0002233;47.0034;264.9973;335.1308;24.9468;4.0143E-5;8.0E-8;0;Orbcomm
14.54725436;0.0002208;47.0035;263.707;336.1219;23.9562;4.0814E-5;1.1E-7;0;Orbcomm
14.5472566;0.0002168;47.0035;260.481;338.6448;21.4345;4.0623E-5;1.0E-7;0;Orbcomm
14.54725651;0.000216;47.0035;260.1585;338.8949;21.1846;3.9175E-5;4.0E-8;0;Orbcomm
14.54726066;0.0002073;47.0036;254.3519;343.449;16.6326;3.9016E-5;3.0E-8;0;Orbcomm
14.54726102;0.0002067;47.0036;254.0293;343.7532;16.3285;3.9174E-5;4.0E-8;0;Orbcomm
14.54726374;0.0002021;47.0036;249.513;347.9196;12.1639;3.6867E-5;-6.0E-8;0;Orbcomm
14.54726396;0.0002015;47.0036;249.1905;348.1546;11.9291;3.6555E-5;-8.0E-8;0;Orbcomm
14.54726567;0.0001982;47.0037;246.6097;350.222;9.8626;3.5847E-5;-1.1E-7;0;Orbcomm
14.54726868;0.0001918;47.0037;242.0935;354.1705;5.9157;3.4945E-5;-1.5E-7;0;Orbcomm
14.54726966;0.0001892;47.0037;240.4807;355.7006;4.3861;3.4364E-5;-1.7E-7;0;Orbcomm
14.54727187;0.0001843;47.0037;237.2548;358.358;1.7298;3.3755E-5;-2.0E-7;0;Orbcomm
14.54727433;0.0001777;47.0037;232.416;3.023;357.0665;3.265E-5;-2.5E-7;0;Orbcomm
14.54727437;0.0001772;47.0037;232.0934;3.2693;356.8203;3.2306E-5;-2.6E-7;0;Orbcomm
14.54727717;0.00017;47.0037;227.5771;7.7082;352.3828;3.3482E-5;-2.1E-7;0;Orbcomm
14.54727734;0.0001695;47.0037;227.2545;8.0816;352.0095;3.3672E-5;-2.0E-7;0;Orbcomm
14.54727749;0.0001691;47.0037;226.6094;8.8336;351.2577;3.3155E-5;-2.2E-7;0;Orbcomm
14.54727988;0.0001633;47.0037;222.7384;12.6079;347.4846;3.3593E-5;-2.0E-7;0;Orbcomm
14.54728012;0.0001629;47.0037;222.4158;12.913;347.1795;3.3983E-5;-1.9E-7;0;Orbcomm
14.54728088;0.000162;47.0037;221.4481;13.8972;346.1956;3.4861E-5;-1.5E-7;0;Orbcomm
14.54728356;0.0001544;47.0037;216.6093;19.1671;340.9271;3.4809E-5;-1.5E-7;0;Orbcomm
14.5472864;0.0001478;47.0038;212.4156;23.677;336.4182;3.6426E-5;-8.0E-8;0;Orbcomm
14.54728773;0.0001455;47.0038;210.4801;25.5516;334.544;3.6187E-5;-9.0E-8;0;Orbcomm
14.54728963;0.0001428;47.0039;208.222;28.3964;331.6998;3.789E-5;-2.0E-8;0;Orbcomm
14.54729183;0.0001396;47.0039;205.6414;31.0773;329.0194;3.9497E-5;5.0E-8;0;Orbcomm
14.54729347;0.0001377;47.0039;204.0285;33.3548;326.7423;4.0758E-5;1.1E-7;0;Orbcomm
14.54729625;0.0001342;47.0039;200.8027;37.0246;323.073;4.239E-5;1.8E-7;0;Orbcomm
14.5472977;0.0001327;47.0039;199.1898;39.3328;320.7653;4.2601E-5;1.9E-7;0;Orbcomm
14.54730134;0.0001275;47.0039;194.6737;45.3041;314.7947;4.1518E-5;1.4E-7;0;Orbcomm
14.54730492;0.0001229;47.0038;189.1899;52.2796;307.8199;3.8525E-5;1.0E-8;0;Orbcomm
14.5473074;0.0001188;47.0036;184.6737;58.5659;301.5341;3.5397E-5;-1.3E-7;0;Orbcomm
14.54730887;0.000116;47.0036;182.093;61.9424;298.1577;3.3876E-5;-1.9E-7;0;Orbcomm
14.5473094;0.0001156;47.0035;180.4801;64.883;295.2174;3.241E-5;-2.5E-7;0;Orbcomm
14.54731121;0.0001131;47.0034;175.9639;71.7863;288.3145;3.0102E-5;-3.5E-7;0;Orbcomm
14.54731133;0.000113;47.0034;175.6413;72.0423;288.0584;3.0111E-5;-3.5E-7;0;Orbcomm
14.54731316;0.0001108;47.0033;170.4799;79.8794;280.2215;2.8013E-5;-4.4E-7;0;Orbcomm
14.5473145;0.0001099;47.0033;166.6089;86.1977;273.9032;2.7102E-5;-4.8E-7;0;Orbcomm
14.54731599;0.0001093;47.0033;161.7702;93.6203;266.4806;2.5293E-5;-5.6E-7;0;Orbcomm
14.54731602;0.0001091;47.0033;161.4476;93.928;266.1728;2.4938E-5;-5.8E-7;0;Orbcomm
14.54731716;0.0001083;47.0033;156.6088;101.2704;258.8302;2.1871E-5;-7.1E-7;0;Orbcomm
14.54731803;0.0001096;47.0032;152.0925;108.6183;251.482;1.8569E-5;-8.5E-7;0;Orbcomm
14.54731863;0.0001092;47.0032;149.5117;112.6048;247.4952;1.6963E-5;-9.2E-7;0;Orbcomm
14.54731837;0.0001107;47.0032;147.8988;115.0993;245.0006;1.4357E-5;-1.03E-6;0;Orbcomm
14.54731902;0.0001129;47.0031;143.06;122.4615;237.6378;1.1123E-5;-1.17E-6;0;Orbcomm
14.54731947;0.0001158;47.003;138.8663;128.8442;231.2546;8.5831E-6;-1.28E-6;0;Orbcomm
14.54731979;0.0001168;47.003;135.6403;133.201;226.8972;7.4232E-6;-1.33E-6;0;Orbcomm
14.54732025;0.0001196;47.003;133.7048;135.7249;224.3731;7.6628E-6;-1.32E-6;0;Orbcomm
14.54732065;0.0001228;47.0029;130.4787;140.559;219.5383;7.1246E-6;-1.35E-6;0;Orbcomm
14.54732114;0.0001243;47.0029;128.8658;142.368;217.7291;8.0522E-6;-1.31E-6;0;Orbcomm
14.54732173;0.0001283;47.003;125.6398;147.0511;213.0453;8.15E-6;-1.3E-6;0;Orbcomm
14.54732182;0.0001293;47.003;124.3494;148.3341;211.7621;8.3883E-6;-1.29E-6;0;Orbcomm
14.54732243;0.0001339;47.0031;119.8331;153.7096;206.3856;8.9761E-6;-1.27E-6;0;Orbcomm
14.54732246;0.0001341;47.0031;119.5105;154.0756;206.0195;8.7688E-6;-1.28E-6;0;Orbcomm
14.54732315;0.0001397;47.0032;114.9942;159.4528;200.6412;9.068E-6;-1.26E-6;0;Orbcomm
14.54732372;0.0001443;47.0033;110.4779;164.1967;195.8963;8.5347E-6;-1.29E-6;0;Orbcomm
14.54732401;0.0001481;47.0035;106.9294;167.9111;192.1809;7.3858E-6;-1.34E-6;0;Orbcomm
14.54732454;0.0001516;47.0036;103.3809;171.5777;188.5133;7.3621E-6;-1.34E-6;0;Orbcomm
14.54732525;0.0001547;47.0036;101.4454;173.5452;186.5452;7.7731E-6;-1.32E-6;0;Orbcomm
14.54732532;0.0001549;47.0036;101.1229;173.807;186.2834;7.6081E-6;-1.33E-6;0;Orbcomm
14.54732604;0.0001597;47.0038;96.6067;177.7921;182.297;6.7248E-6;-1.37E-6;0;Orbcomm
14.54732643;0.0001629;47.0039;94.0259;180.3164;179.772;6.2786E-6;-1.38E-6;0;Orbcomm
14.54732702;0.000165;47.0039;92.0905;182.0036;178.0841;6.7753E-6;-1.36E-6;0;Orbcomm
14.54732754;0.000168;47.004;89.5097;184.5891;175.4978;7.0757E-6;-1.35E-6;0;Orbcomm
14.54732758;0.0001686;47.004;89.1871;184.8278;175.259;6.6579E-6;-1.37E-6;0;Orbcomm
14.54732835;0.0001738;47.0042;84.6709;188.7392;171.3462;6.118E-6;-1.39E-6;0;Orbcomm
14.54732814;0.0001744;47.0042;83.3806;189.2925;170.7927;5.5149E-6;-1.42E-6;0;Orbcomm
14.54732825;0.0001748;47.0042;82.7355;189.7775;170.3076;5.4462E-6;-1.42E-6;0;Orbcomm
14.5473291;0.0001803;47.0044;78.2193;193.9369;166.1466;6.3595E-6;-1.38E-6;0;Orbcomm
14.54732967;0.0001858;47.0046;73.3804;197.9128;162.1691;6.4293E-6;-1.38E-6;0;Orbcomm
14.54733021;0.0001899;47.0048;69.1869;201.1893;158.8913;6.8236E-6;-1.36E-6;0;Orbcomm
14.5472757;0.0002006;47.005;64.3479;204.1466;155.9324;7.7345E-6;-1.32E-6;0;Orbcomm
14.54727398;0.0002025;47.0051;61.1222;206.972;153.1059;7.5074E-6;-1.33E-6;0;Orbcomm
14.54727454;0.0002038;47.0052;59.5094;207.98;152.0975;7.7581E-6;-1.32E-6;0;Orbcomm
14.54727547;0.0002077;47.0053;56.6062;210.1921;149.8844;8.5211E-6;-1.29E-6;0;Orbcomm
14.54727673;0.0002074;47.0053;54.9935;211.3968;148.6793;9.5999E-6;-1.24E-6;0;Orbcomm
14.54727765;0.0002111;47.0054;52.0904;213.6999;146.3751;8.2464E-6;-1.3E-6;0;Orbcomm
14.5472778;0.000212;47.0054;51.7678;213.9151;146.1597;8.2688E-6;-1.3E-6;0;Orbcomm
14.54728249;0.0002161;47.0054;47.2517;217.0741;142.9994;2.6198E-5;-5.2E-7;0;Orbcomm
14.54728328;0.000217;47.0054;45.9615;217.9641;142.1091;2.7029E-5;-4.9E-7;0;Orbcomm
14.54728625;0.0002205;47.0055;42.4131;220.4777;139.5943;2.9781E-5;-3.7E-7;0;Orbcomm
14.54728789;0.0002209;47.0055;41.1229;221.2957;138.776;3.3287E-5;-2.2E-7;0;Orbcomm
14.54728966;0.0002243;47.0055;37.8971;223.7104;136.3603;3.1626E-5;-2.9E-7;0;Orbcomm
14.54729238;0.0002273;47.0055;34.0262;226.3999;133.6697;3.3321E-5;-2.2E-7;0;Orbcomm
14.5472933;0.0002286;47.0055;33.0585;226.9154;133.1539;3.3621E-5;-2.0E-7;0;Orbcomm
14.54729682;0.0002316;47.0056;28.5424;229.5512;130.517;3.497E-5;-1.5E-7;0;Orbcomm
14.54729704;0.0002317;47.0056;28.2199;229.806;130.2621;3.5286E-5;-1.3E-7;0;Orbcomm
14.5473;0.0002344;47.0056;24.0264;232.4896;127.5775;3.5247E-5;-1.3E-7;0;Orbcomm
14.54730083;0.0002347;47.0056;22.7362;233.4523;126.6146;3.5609E-5;-1.2E-7;0;Orbcomm
14.54730289;0.0002376;47.0057;19.1877;235.7638;124.3021;3.3934E-5;-1.9E-7;0;Orbcomm
14.54730406;0.0002376;47.0057;17.8976;236.8448;123.2209;3.5488E-5;-1.2E-7;0;Orbcomm
14.54730556;0.0002401;47.0057;14.3492;239.0177;121.0472;3.1891E-5;-2.8E-7;0;Orbcomm
14.54730817;0.0002427;47.0057;10.1557;241.7092;118.3547;3.1639E-5;-2.9E-7;0;Orbcomm
14.54730827;0.000243;47.0057;9.8332;241.9232;118.1407;3.1446E-5;-3.0E-7;0;Orbcomm
14.54730875;0.000243;47.0057;8.8655;242.6214;117.4423;3.1182E-5;-3.1E-7;0;Orbcomm
14.54731058;0.0002456;47.0056;5.3172;244.8201;115.2428;3.0059E-5;-3.6E-7;0;Orbcomm
14.54731064;0.0002457;47.0056;4.9946;245.0205;115.0424;2.9842E-5;-3.7E-7;0;Orbcomm
14.5473124;0.0002478;47.0055;0.4785;248.0293;112.0328;2.6889E-5;-4.9E-7;0;Orbcomm
14.54731281;0.0002479;47.0055;359.5109;248.8254;111.2365;2.6848E-5;-5.0E-7;0;Orbcomm
14.54731484;0.0002498;47.0054;355.6399;251.211;108.8503;2.7048E-5;-4.9E-7;0;Orbcomm
